H1 CPF 01  gfz 2021 08 10 12  7222 terrasarx 
H2 0702601  6201 31698    2021 08 10 12 59 42 2021 08 15 00 00 42   120 1 1  0 0 0
H9
10 0 59439  19422.000000  0   -4525870.359  -1415385.753  -5004097.110
10 0 59439  19542.000000  0   -5168081.573  -1387699.974  -4345942.583
10 0 59439  19662.000000  0   -5719603.332  -1325427.669  -3611648.223
10 0 59439  19782.000000  0   -6170151.677  -1231303.548  -2814010.564
10 0 59439  19902.000000  0   -6511241.765  -1108785.511  -1966968.625
10 0 59439  20022.000000  0   -6736359.835   -961963.905  -1085362.132
10 0 59439  20142.000000  0   -6841099.675   -795456.174   -184669.216
10 0 59439  20262.000000  0   -6823257.660   -614287.931    719271.602
10 0 59439  20382.000000  0   -6682883.993   -423765.268   1610547.303
10 0 59439  20502.000000  0   -6422288.985   -229341.420   2473459.697
10 0 59439  20622.000000  0   -6046003.420    -36480.321   3292810.838
10 0 59439  20742.000000  0   -5560693.715    149479.187   4054178.411
10 0 59439  20862.000000  0   -4975034.541    323454.404   4744174.207
10 0 59439  20982.000000  0   -4299543.192    480742.014   5350680.431
10 0 59439  21102.000000  0   -3546381.142    617131.315   5863060.227
10 0 59439  21222.000000  0   -2729126.222    729003.997   6272340.791
10 0 59439  21342.000000  0   -1862520.592    813418.415   6571365.216
10 0 59439  21462.000000  0    -962199.230    868178.129   6754911.925
10 0 59439  21582.000000  0     -44405.394    891882.258   6819778.998
10 0 59439  21702.000000  0     874301.916    883956.973   6764835.867
10 0 59439  21822.000000  0    1777345.333    844668.256   6591041.766
10 0 59439  21942.000000  0    2648427.025    775115.427   6301430.220
10 0 59439  22062.000000  0    3471822.819    677205.305   5901060.275
10 0 59439  22182.000000  0    4232668.617    553607.551   5396933.185
10 0 59439  22302.000000  0    4917232.442    407691.879   4797875.959
10 0 59439  22422.000000  0    5513169.005    243447.293   4114393.517
10 0 59439  22542.000000  0    6009752.240     65386.748   3358488.902
10 0 59439  22662.000000  0    6398079.039   -121561.130   2543453.564
10 0 59439  22782.000000  0    6671238.075   -312172.382   1683631.625
10 0 59439  22902.000000  0    6824441.227   -501057.270    794164.114
10 0 59439  23022.000000  0    6855114.248   -682793.525   -109284.267
10 0 59439  23142.000000  0    6762942.815   -852062.121  -1010810.373
10 0 59439  23262.000000  0    6549871.520  -1003781.462  -1894561.574
10 0 59439  23382.000000  0    6220057.855  -1133236.099  -2745022.571
10 0 59439  23502.000000  0    5779782.042  -1236197.080  -3547293.134
10 0 59439  23622.000000  0    5237316.220  -1309030.681  -4287351.436
10 0 59439  23742.000000  0    4602756.820  -1348792.661  -4952297.470
10 0 59439  23862.000000  0    3887825.594  -1353306.809  -5530572.880
10 0 59439  23982.000000  0    3105643.075  -1321226.640  -6012153.898
10 0 59439  24102.000000  0    2270480.991  -1252078.079  -6388714.084
10 0 59439  24222.000000  0    1397499.321  -1146282.186  -6653757.390
10 0 59439  24342.000000  0     502471.612  -1005159.387  -6802719.548
10 0 59439  24462.000000  0    -398496.218   -830914.757  -6833038.365
10 0 59439  24582.000000  0   -1289249.387   -626604.026  -6744192.508
10 0 59439  24702.000000  0   -2153867.431   -396081.130  -6537709.891
10 0 59439  24822.000000  0   -2976942.485   -143927.662  -6217143.022
10 0 59439  24942.000000  0   -3743847.626    124634.126  -5788014.480
10 0 59439  25062.000000  0   -4440995.586    403844.485  -5257732.606
10 0 59439  25182.000000  0   -5056081.385    687523.171  -4635474.299
10 0 59439  25302.000000  0   -5578305.854    969199.026  -3932038.811
10 0 59439  25422.000000  0   -5998575.429   1242250.848  -3159669.990
10 0 59439  25542.000000  0   -6309672.035   1500055.264  -2331849.968
10 0 59439  25662.000000  0   -6506389.644   1736138.277  -1463067.342
10 0 59439  25782.000000  0   -6585633.902   1944327.872   -568563.113
10 0 59439  25902.000000  0   -6546480.247   2118902.792    335942.011
10 0 59439  26022.000000  0   -6390187.892   2254733.592   1234531.213
10 0 59439  26142.000000  0   -6120170.309   2347413.512   2111379.943
10 0 59439  26262.000000  0   -5741921.815   2393374.950   2951043.863
10 0 59439  26382.000000  0   -5262902.509   2389987.795   3738739.003
10 0 59439  26502.000000  0   -4692384.011   2335637.105   4460608.130
10 0 59439  26622.000000  0   -4041261.230   2229779.188   5103966.447
10 0 59439  26742.000000  0   -3321836.265   2072974.903   5657523.630
10 0 59439  26862.000000  0   -2547578.429   1866900.103   6111579.866
10 0 59439  26982.000000  0   -1732864.372   1614331.956   6458191.371
10 0 59439  27102.000000  0    -892705.714   1319111.689   6691302.856
10 0 59439  27222.000000  0     -42470.370    986085.312   6806845.828
10 0 59439  27342.000000  0     802397.867    621023.360   6802804.738
10 0 59439  27462.000000  0    1626658.658    230520.919   6679249.742
10 0 59439  27582.000000  0    2415548.596   -178120.677   6438335.845
10 0 59439  27702.000000  0    3155045.292   -597029.531   6084268.977
10 0 59439  27822.000000  0    3832118.725  -1017913.310   5623237.417
10 0 59439  27942.000000  0    4434964.678  -1432222.103   5063309.212
10 0 59439  28062.000000  0    4953215.601  -1831321.114   4414297.004
10 0 59439  28182.000000  0    5378126.979  -2206669.174   3687591.813
10 0 59439  28302.000000  0    5702734.297  -2550000.593   2895965.544
10 0 59439  28422.000000  0    5921974.584  -2853505.673   2053345.665
10 0 59439  28542.000000  0    6032771.282  -3110005.053   1174567.954
10 0 59439  28662.000000  0    6034081.013  -3313114.774    275109.542
10 0 59439  28782.000000  0    5926897.783  -3457396.061   -629191.707
10 0 59439  28902.000000  0    5714217.145  -3538487.201  -1522425.444
10 0 59439  29022.000000  0    5400957.831  -3553212.324  -2388897.862
10 0 59439  29142.000000  0    4993846.574  -3499666.262  -3213413.438
10 0 59439  29262.000000  0    4501268.298  -3377273.174  -3981545.543
10 0 59439  29382.000000  0    3933085.775  -3186817.964  -4679889.109
10 0 59439  29502.000000  0    3300433.616  -2930449.327  -5296291.349
10 0 59439  29622.000000  0    2615492.896  -2611655.250  -5820055.084
10 0 59439  29742.000000  0    1891253.183  -2235214.072  -6242113.918
10 0 59439  29862.000000  0    1141264.940  -1807120.735  -6555179.970
10 0 59439  29982.000000  0     379385.831  -1334488.105  -6753859.253
10 0 59439  30102.000000  0    -380472.088   -825428.309  -6834734.268
10 0 59439  30222.000000  0   -1124590.799   -288915.316  -6796415.584
10 0 59439  30342.000000  0   -1839688.243    265369.699  -6639563.010
10 0 59439  30462.000000  0   -2513149.980    827208.689  -6366874.607
10 0 59439  30582.000000  0   -3133246.716   1386030.021  -5983045.340
10 0 59439  30702.000000  0   -3689336.241   1931102.540  -5494695.592
10 0 59439  30822.000000  0   -4172048.324   2451738.220  -4910268.919
10 0 59439  30942.000000  0   -4573447.686   2937500.569  -4239896.798
10 0 59439  31062.000000  0   -4887170.646   3378413.333  -3495232.632
10 0 59439  31182.000000  0   -5108534.088   3765166.471  -2689258.466
10 0 59439  31302.000000  0   -5234613.268   4089314.996  -1836063.531
10 0 59439  31422.000000  0   -5264286.099   4343464.751   -950599.687
10 0 59439  31542.000000  0   -5198242.503   4521441.105    -48416.768
10 0 59439  31662.000000  0   -5038957.018   4618436.064    854616.637
10 0 59439  31782.000000  0   -4790624.426   4631127.952   1742601.632
10 0 59439  31902.000000  0   -4459059.941   4557770.855   2599898.350
10 0 59439  32022.000000  0   -4051566.454   4398252.582   3411409.703
10 0 59439  32142.000000  0   -3576773.080   4154119.083   4162853.642
10 0 59439  32262.000000  0   -3044449.956   3828564.887   4841018.272
10 0 59439  32382.000000  0   -2465303.255   3426390.321   5433995.799
10 0 59439  32502.000000  0   -1850754.994   2953926.491   5931389.885
10 0 59439  32622.000000  0   -1212713.390   2418930.358   6324493.540
10 0 59439  32742.000000  0    -563339.079   1830451.895   6606434.407
10 0 59439  32862.000000  0      85186.180   1198678.060   6772288.125
10 0 59439  32982.000000  0     720887.917    534754.520   6819159.578
10 0 59439  33102.000000  0    1332219.142   -149410.843   6746229.556
10 0 59439  33222.000000  0    1908268.927   -841360.553   6554768.917
10 0 59439  33342.000000  0    2438956.701  -1528313.854   6248118.146
10 0 59439  33462.000000  0    2915209.649  -2197401.926   5831633.793
10 0 59439  33582.000000  0    3329120.644  -2835909.907   5312600.316
10 0 59439  33702.000000  0    3674082.790  -3431520.296   4700108.710
10 0 59439  33822.000000  0    3944899.147  -3972554.102   4004902.911
10 0 59439  33942.000000  0    4137865.007  -4448204.723   3239194.866
10 0 59439  34062.000000  0    4250820.230  -4848759.357   2416451.290
10 0 59439  34182.000000  0    4283170.906  -5165802.467   1551154.815
10 0 59439  34302.000000  0    4235878.653  -5392395.763    658544.042
10 0 59439  34422.000000  0    4111417.408  -5523229.670   -245661.871
10 0 59439  34542.000000  0    3913700.641  -5554743.767  -1145547.482
10 0 59439  34662.000000  0    3647978.384  -5485212.532  -2025291.032
10 0 59439  34782.000000  0    3320707.557  -5314792.590  -2869449.957
10 0 59439  34902.000000  0    2939400.212  -5045532.488  -3663237.792
10 0 59439  35022.000000  0    2512451.987  -4681344.180  -4392785.610
10 0 59439  35142.000000  0    2048956.243  -4227938.099  -5045382.543
10 0 59439  35262.000000  0    1558509.947  -3692723.492  -5609691.051
10 0 59439  35382.000000  0    1051015.837  -3084678.732  -6075934.339
10 0 59439  35502.000000  0     536483.670  -2414194.869  -6436055.328
10 0 59439  35622.000000  0      24834.815  -1692894.059  -6683845.090
10 0 59439  35742.000000  0    -474285.177   -933426.763  -6815039.323
10 0 59439  35862.000000  0    -951683.207   -149251.770  -6827383.635
99
